STARLINK-30580          
1 58115U 23161U   26068.55240140 -.00002675  00000+0 -78229-4 0  9999
2 58115  53.1604 165.9333 0001386  87.8627 272.2532 15.30197147134398
AL MUNTHER              
1 63240U 25052AG  26068.64540749  .00017933  00000+0  65015-3 0  9992
2 63240  97.4001 323.9152 0008027 130.7043 229.4895 15.28381521 54798
